{
    "links": {
        "self": "http://www.neowsapp.com/rest/v1/neo/3760525?api_key=iIulBulltgU6a56xZRHN4H3l9WmuAYTsLGpBGhQ2"
    },
    "id": "3760525",
    "neo_reference_id": "3760525",
    "name": "(2016 TM11)",
    "designation": "2016 TM11",
    "nasa_jpl_url": "http://ssd.jpl.nasa.gov/sbdb.cgi?sstr=3760525",
    "absolute_magnitude_h": 24.0,
    "estimated_diameter": {
        "kilometers": {
            "estimated_diameter_min": 0.0421264611,
            "estimated_diameter_max": 0.0941976306
        },
        "meters": {
            "estimated_diameter_min": 42.1264610556,
            "estimated_diameter_max": 94.1976305719
        },
        "miles": {
            "estimated_diameter_min": 0.0261761612,
            "estimated_diameter_max": 0.0585316759
        },
        "feet": {
            "estimated_diameter_min": 138.2101784897,
            "estimated_diameter_max": 309.0473542854
        }
    },
    "is_potentially_hazardous_asteroid": false,
    "close_approach_data": [
        {
            "close_approach_date": "2014-09-25",
            "close_approach_date_full": "2014-Sep-25 06:43",
            "epoch_date_close_approach": 1411627380000,
            "relative_velocity": {
                "kilometers_per_second": "14.0209754433",
                "kilometers_per_hour": "50475.5115960305",
                "miles_per_hour": "31363.5199692113"
            },
            "miss_distance": {
                "astronomical": "0.4241881166",
                "lunar": "165.0091773574",
                "kilometers": "63457638.722671642",
                "miles": "39430748.2741749796"
            },
            "orbiting_body": "Earth"
        },
        {
            "close_approach_date": "2016-10-08",
            "close_approach_date_full": "2016-Oct-08 20:31",
            "epoch_date_close_approach": 1475958660000,
            "relative_velocity": {
                "kilometers_per_second": "6.5781250583",
                "kilometers_per_hour": "23681.2502098096",
                "miles_per_hour": "14714.6079428675"
            },
            "miss_distance": {
                "astronomical": "0.1173661328",
                "lunar": "45.6554256592",
                "kilometers": "17557723.477017136",
                "miles": "10909863.4715270368"
            },
            "orbiting_body": "Earth"
        },
        {
            "close_approach_date": "2018-10-13",
            "close_approach_date_full": "2018-Oct-13 10:09",
            "epoch_date_close_approach": 1539425340000,
            "relative_velocity": {
                "kilometers_per_second": "8.2717936734",
                "kilometers_per_hour": "29778.4572243225",
                "miles_per_hour": "18503.1752680798"
            },
            "miss_distance": {
                "astronomical": "0.3350839395",
                "lunar": "130.3476524655",
                "kilometers": "50127843.620408865",
                "miles": "31147997.673877737"
            },
            "orbiting_body": "Earth"
        }
    ],
    "orbital_data": {
        "orbit_id": "4",
        "orbit_determination_date": "2018-02-10 07:08:19",
        "first_observation_date": "2016-09-30",
        "last_observation_date": "2016-11-21",
        "data_arc_in_days": 52,
        "observations_used": 40,
        "orbit_uncertainty": "7",
        "minimum_orbit_intersection": ".109048",
        "jupiter_tisserand_invariant": "4.257",
        "epoch_osculation": "2459000.5",
        "eccentricity": ".3223013936804506",
        "semi_major_axis": "1.616829794215339",
        "inclination": "10.03228692658022",
        "ascending_node_longitude": "8.713855352378673",
        "orbital_period": "750.9220934389261",
        "perihelion_distance": "1.095723298195659",
        "perihelion_argument": "22.3450394369098",
        "aphelion_distance": "2.137936290235019",
        "perihelion_time": "2459184.645013480367",
        "mean_anomaly": "271.7189313882883",
        "mean_motion": ".4794105848601982",
        "equinox": "J2000",
        "orbit_class": {
            "orbit_class_type": "AMO",
            "orbit_class_description": "Near-Earth asteroid orbits similar to that of 1221 Amor",
            "orbit_class_range": "1.017 AU < q (perihelion) < 1.3 AU"
        }
    },
    "is_sentry_object": false
}